[
    {
        "Altitude(m)": 553957.6716291751,
        "Argument of Periapsis(deg)": 0.019868973332140504,
        "Eccentricity": 0.0,
        "Inclination(deg)": 53.0,
        "Latitude(deg)": 2.3484334339335615,
        "Longitude(deg)": -60.61903367835457,
        "Mean Anomaly(deg)": 3.0020786027327917,
        "RAAN(deg)": 39.97043010558405,
        "Satellite Name": "Starlink Shell 1 196",
        "Satellite Number": 196,
        "Semi-Major Axis(m)": 6931778.249405717,
        "Time(s)": 570
    },
    {
        "Altitude(m)": 553906.8113408189,
        "Argument of Periapsis(deg)": 0.02021755181165174,
        "Eccentricity": 0.0,
        "Inclination(deg)": 53.0,
        "Latitude(deg)": 2.8521186628634827,
        "Longitude(deg)": -60.282857278810084,
        "Mean Anomaly(deg)": 3.6289098062894496,
        "RAAN(deg)": 39.96991133550658,
        "Satellite Name": "Starlink Shell 1 196",
        "Satellite Number": 196,
        "Semi-Major Axis(m)": 6931778.249405717,
        "Time(s)": 580
    },
    {
        "Altitude(m)": 553858.7724288575,
        "Argument of Periapsis(deg)": 0.020566130291162974,
        "Eccentricity": 0.0,
        "Inclination(deg)": 53.0,
        "Latitude(deg)": 3.35568345477792,
        "Longitude(deg)": -59.94634616135734,
        "Mean Anomaly(deg)": 4.255741009846157,
        "RAAN(deg)": 39.969392565429104,
        "Satellite Name": "Starlink Shell 1 196",
        "Satellite Number": 196,
        "Semi-Major Axis(m)": 6931778.249405717,
        "Time(s)": 590
    },
    {
        "Altitude(m)": 553813.5545395633,
        "Argument of Periapsis(deg)": 0.020914708770674213,
        "Eccentricity": 0.0,
        "Inclination(deg)": 53.0,
        "Latitude(deg)": 3.8591046711470947,
        "Longitude(deg)": -59.60944228788984,
        "Mean Anomaly(deg)": 4.882572213402916,
        "RAAN(deg)": 39.968873795351634,
        "Satellite Name": "Starlink Shell 1 196",
        "Satellite Number": 196,
        "Semi-Major Axis(m)": 6931778.249405717,
        "Time(s)": 600
    },
    {
        "Altitude(m)": 553771.1559708965,
        "Argument of Periapsis(deg)": 0.021263287250185448,
        "Eccentricity": 0.0,
        "Inclination(deg)": 53.0,
        "Latitude(deg)": 4.362359091276045,
        "Longitude(deg)": -59.272087446127884,
        "Mean Anomaly(deg)": 5.509403416959574,
        "RAAN(deg)": 39.968355025274164,
        "Satellite Name": "Starlink Shell 1 196",
        "Satellite Number": 196,
        "Semi-Major Axis(m)": 6931778.249405717,
        "Time(s)": 610
    },
    {
        "Altitude(m)": 553731.5736760973,
        "Argument of Periapsis(deg)": 0.021611865729696686,
        "Eccentricity": 0.0,
        "Inclination(deg)": 53.0,
        "Latitude(deg)": 4.865423400322947,
        "Longitude(deg)": -58.93422271987381,
        "Mean Anomaly(deg)": 6.1362346205163405,
        "RAAN(deg)": 39.96783625519669,
        "Satellite Name": "Starlink Shell 1 196",
        "Satellite Number": 196,
        "Semi-Major Axis(m)": 6931778.249405717,
        "Time(s)": 620
    },
    {
        "Altitude(m)": 553694.8032680049,
        "Argument of Periapsis(deg)": 0.02196044420920792,
        "Eccentricity": 0.0,
        "Inclination(deg)": 53.0,
        "Latitude(deg)": 5.368274177226091,
        "Longitude(deg)": -58.59578964017737,
        "Mean Anomaly(deg)": 6.763065824073048,
        "RAAN(deg)": 39.96731748511922,
        "Satellite Name": "Starlink Shell 1 196",
        "Satellite Number": 196,
        "Semi-Major Axis(m)": 6931778.249405717,
        "Time(s)": 630
    },
    {
        "Altitude(m)": 553660.8390239964,
        "Argument of Periapsis(deg)": 0.02230902268871916,
        "Eccentricity": 0.0,
        "Inclination(deg)": 53.0,
        "Latitude(deg)": 5.870887882533398,
        "Longitude(deg)": -58.25672881497841,
        "Mean Anomaly(deg)": 7.389897027629757,
        "RAAN(deg)": 39.96679871504175,
        "Satellite Name": "Starlink Shell 1 196",
        "Satellite Number": 196,
        "Semi-Major Axis(m)": 6931778.249405717,
        "Time(s)": 640
    },
    {
        "Altitude(m)": 553629.6738916266,
        "Argument of Periapsis(deg)": 0.022657601168230398,
        "Eccentricity": 0.0,
        "Inclination(deg)": 53.0,
        "Latitude(deg)": 6.373240846117216,
        "Longitude(deg)": -57.91698108013317,
        "Mean Anomaly(deg)": 8.016728231186464,
        "RAAN(deg)": 39.96627994496426,
        "Satellite Name": "Starlink Shell 1 196",
        "Satellite Number": 196,
        "Semi-Major Axis(m)": 6931778.249405717,
        "Time(s)": 650
    },
    {
        "Altitude(m)": 553601.299494894,
        "Argument of Periapsis(deg)": 0.023006179647741636,
        "Eccentricity": 0.0,
        "Inclination(deg)": 53.0,
        "Latitude(deg)": 6.875309254767096,
        "Longitude(deg)": -57.57648696939245,
        "Mean Anomaly(deg)": 8.643559434743175,
        "RAAN(deg)": 39.965761174886794,
        "Satellite Name": "Starlink Shell 1 196",
        "Satellite Number": 196,
        "Semi-Major Axis(m)": 6931778.249405717,
        "Time(s)": 660
    },
    {
        "Altitude(m)": 553575.7061412239,
        "Argument of Periapsis(deg)": 0.023354758127252868,
        "Eccentricity": 0.0,
        "Inclination(deg)": 53.0,
        "Latitude(deg)": 7.377069139647232,
        "Longitude(deg)": -57.235186184297994,
        "Mean Anomaly(deg)": 9.27039063829994,
        "RAAN(deg)": 39.96524240480932,
        "Satellite Name": "Starlink Shell 1 196",
        "Satellite Number": 196,
        "Semi-Major Axis(m)": 6931778.249405717,
        "Time(s)": 670
    },
    {
        "Altitude(m)": 553552.8828290182,
        "Argument of Periapsis(deg)": 0.023703336606764106,
        "Eccentricity": 0.0,
        "Inclination(deg)": 53.0,
        "Latitude(deg)": 7.878496363605504,
        "Longitude(deg)": -56.893018576865835,
        "Mean Anomaly(deg)": 9.897221841856597,
        "RAAN(deg)": 39.96472363473185,
        "Satellite Name": "Starlink Shell 1 196",
        "Satellite Number": 196,
        "Semi-Major Axis(m)": 6931778.249405717,
        "Time(s)": 680
    },
    {
        "Altitude(m)": 553532.8172559489,
        "Argument of Periapsis(deg)": 0.024051915086275345,
        "Eccentricity": 0.0,
        "Inclination(deg)": 53.0,
        "Latitude(deg)": 8.379566608325431,
        "Longitude(deg)": -56.5499236193068,
        "Mean Anomaly(deg)": 10.524053045413304,
        "RAAN(deg)": 39.96420486465438,
        "Satellite Name": "Starlink Shell 1 196",
        "Satellite Number": 196,
        "Semi-Major Axis(m)": 6931778.249405717,
        "Time(s)": 690
    },
    {
        "Altitude(m)": 553515.4958278222,
        "Argument of Periapsis(deg)": 0.024400493565786583,
        "Eccentricity": 0.0,
        "Inclination(deg)": 53.0,
        "Latitude(deg)": 8.880255361306824,
        "Longitude(deg)": -56.20583987365559,
        "Mean Anomaly(deg)": 11.150884248970064,
        "RAAN(deg)": 39.9636860945769,
        "Satellite Name": "Starlink Shell 1 196",
        "Satellite Number": 196,
        "Semi-Major Axis(m)": 6931778.249405717,
        "Time(s)": 700
    },
    {
        "Altitude(m)": 553500.9036681361,
        "Argument of Periapsis(deg)": 0.024749072045297815,
        "Eccentricity": 0.0,
        "Inclination(deg)": 53.0,
        "Latitude(deg)": 9.380537902662711,
        "Longitude(deg)": -55.860705974179474,
        "Mean Anomaly(deg)": 11.77771545252672,
        "RAAN(deg)": 39.96316732449943,
        "Satellite Name": "Starlink Shell 1 196",
        "Satellite Number": 196,
        "Semi-Major Axis(m)": 6931778.249405717,
        "Time(s)": 710
    },
    {
        "Altitude(m)": 553489.0246282291,
        "Argument of Periapsis(deg)": 0.025097650524809053,
        "Eccentricity": 0.0,
        "Inclination(deg)": 53.0,
        "Latitude(deg)": 9.880389291723512,
        "Longitude(deg)": -55.514460096818254,
        "Mean Anomaly(deg)": 12.40454665608348,
        "RAAN(deg)": 39.96264855442196,
        "Satellite Name": "Starlink Shell 1 196",
        "Satellite Number": 196,
        "Semi-Major Axis(m)": 6931778.249405717,
        "Time(s)": 720
    },
    {
        "Altitude(m)": 553479.8412980855,
        "Argument of Periapsis(deg)": 0.02544622900432029,
        "Eccentricity": 0.0,
        "Inclination(deg)": 53.0,
        "Latitude(deg)": 10.379784353433358,
        "Longitude(deg)": -55.167039428531915,
        "Mean Anomaly(deg)": 13.031377859640196,
        "RAAN(deg)": 39.962129784344484,
        "Satellite Name": "Starlink Shell 1 196",
        "Satellite Number": 196,
        "Semi-Major Axis(m)": 6931778.249405717,
        "Time(s)": 730
    },
    {
        "Altitude(m)": 553473.3350177626,
        "Argument of Periapsis(deg)": 0.02579480748383153,
        "Eccentricity": 0.0,
        "Inclination(deg)": 53.0,
        "Latitude(deg)": 10.878697664527152,
        "Longitude(deg)": -54.818381149427026,
        "Mean Anomaly(deg)": 13.658209063196852,
        "RAAN(deg)": 39.961611014267014,
        "Satellite Name": "Starlink Shell 1 196",
        "Satellite Number": 196,
        "Semi-Major Axis(m)": 6931778.249405717,
        "Time(s)": 740
    },
    {
        "Altitude(m)": 553469.4858894057,
        "Argument of Periapsis(deg)": 0.026143385963342765,
        "Eccentricity": 0.0,
        "Inclination(deg)": 53.0,
        "Latitude(deg)": 11.3771035394775,
        "Longitude(deg)": -54.46842190192038,
        "Mean Anomaly(deg)": 14.285040266753663,
        "RAAN(deg)": 39.961092244189544,
        "Satellite Name": "Starlink Shell 1 196",
        "Satellite Number": 196,
        "Semi-Major Axis(m)": 6931778.249405717,
        "Time(s)": 750
    }
]